IRIDIUM 150             
1 43257U 18030J   25263.91142867  .00000101  00000+0  28995-4 0  9997
2 43257  86.3967  43.0137 0002293  88.0631 272.0828 14.34217662391561
IRIDIUM 143             
1 43258U 18030K   25263.89240145 -.00000063  00000+0 -29506-4 0  9991
2 43258  86.3968  43.1043 0002334  84.0710 276.0751 14.34217034391494
IRIDIUM 161             
1 43478U 18047C   25263.88802149  .00000447  00000+0  12673-3 0  9990
2 43478  86.4547 200.9520 0002193  88.0327 272.1125 14.43285127386298
IRIDIUM 152             
1 43479U 18047D   25263.86511899  .00000057  00000+0  13234-4 0  9990
2 43479  86.4022 200.8224 0002288  87.8130 272.3328 14.34217899383881
IRIDIUM 147             
1 43480U 18047E   25263.87146139  .00000025  00000+0  18297-5 0  9994
2 43480  86.4024 200.8202 0002121  83.4871 276.6567 14.34217551383888
IRIDIUM 110             
1 43481U 18047F   25263.87780342  .00000015  00000+0 -17747-5 0  9994
2 43481  86.4028 200.9025 0001780  95.4518 264.6881 14.34217487383871
IRIDIUM 162             
1 43482U 18047G   25263.88172074  .00000466  00000+0  13249-3 0  9993
2 43482  86.4545 200.8489 0002265  92.2169 267.9292 14.43283305386287
IRIDIUM 160             
1 43569U 18061A   25263.82363965  .00000005  00000+0 -51605-5 0  9990
2 43569  86.4045 169.3702 0001848  87.7136 272.4272 14.34217522374761
